NOAA 10                 
1 16969U 86073A   25006.92587111  .00000497  00000+0  21429-3 0  9992
2 16969  98.6614 357.1910 0013158  95.2355 318.4031 14.28881135994249
